LEMUR-1                 
1 40044U 14033AL  26198.87878710  .00000722  00000+0  88759-4 0  9996
2 40044  97.7912 348.0098 0047506 339.0298  20.8968 14.85341275650023
LEMUR-2-GREENBERG       
1 42837U 17042N   26198.46334877  .00009265  00000+0  30030-3 0  9996
2 42837  97.3832  18.9701 0007286 249.8308 110.2151 15.32196006493023
LEMUR-2-ANDIS           
1 42838U 17042P   26198.94176300  .00012258  00000+0  35164-3 0  9994
2 42838  97.3687  19.7422 0007325 246.7167 113.3306 15.35993587493178
LEMUR-2-MONSON          
1 42839U 17042Q   26198.47305361  .00007291  00000+0  26317-3 0  9995
2 42839  97.4093  18.9043 0005447 235.4032 124.6694 15.28788408492798
LEMUR-2-FURIAUS         
1 42840U 17042R   26198.93524487  .00009509  00000+0  31801-3 0  9998
2 42840  97.3784  17.3261 0005756 317.6952  42.3844 15.31185432492917
LEMUR-2-PETERG          
1 42841U 17042S   26198.94424404  .00011052  00000+0  32678-3 0  9997
2 42841  97.3997  24.0528 0003473 208.7631 151.3422 15.35090809493150
LEMUR-2-DEMBITZ         
1 42842U 17042T   26198.23615465  .00008872  00000+0  29729-3 0  9998
2 42842  97.3830  19.6761 0005078 264.8229  95.2433 15.31146418492943
LEMUR-2-ZACHARY         
1 42845U 17042W   26198.82325497  .00032659  00000+0  52616-3 0  9990
2 42845  97.3574  31.1688 0002728 232.2170 127.8837 15.52880963493956
LEMUR-2-AMANDA-SVANTE   
1 48269U 21034B   26198.86116721  .00018546  00000+0  52960-3 0  9995
2 48269  97.5746 277.9949 0004679 136.5026 223.6587 15.36062044285767
LEMUR-2-SPECIAL-K       
1 48273U 21034F   26198.81102039  .00172877  00000+0  11132-2 0  9995
2 48273  97.5642 288.1363 0006274 213.2300 146.8571 15.75648684286495
LEMUR-2-EMBRIONOVIS     
1 56970U 23084AQ  26198.91211885  .00008008  00000+0  21443-3 0  9997
2 56970  97.6330 344.3137 0008582 196.0880 164.0093 15.38274237172406
LEMUR-2-DEVERILL-M-T    
1 57391U 23100F   26198.56822767  .00013814  00000+0  33582-3 0  9990
2 57391  99.4446 246.1369 0004715 287.0289  73.0435 15.41163271165923
LEMUR-2-BASS            
1 58259U 23174D   26198.80808754  .00009724  00000+0  21475-3 0  9995
2 58259  97.3843 283.9689 0007500  70.2328 289.9728 15.44047545150082
LEMUR-2-JK0903EM1407    
1 58336U 23174CJ  26198.82496246  .00015897  00000+0  25490-3 0  9991
2 58336  97.3921 290.1925 0003365  23.2594 336.8811 15.53156673150488
LEMUR-2-MJR092620       
1 58340U 23174CN  26198.84984484  .00011019  00000+0  22824-3 0  9994
2 58340  97.3972 289.4672 0005076  20.9048 339.2408 15.45922341150380
LEMUR-2-NIMBUS2000      
1 58899U 24022A   26198.54102454  .00011714  00000+0  28409-3 0  9999
2 58899  97.4077  48.9446 0008520  20.8268 339.3324 15.41176180136945
LEMUR-2-VALHALLA        
1 58900U 24022B   26198.54685166  .00008595  00000+0  21353-3 0  9992
2 58900  97.4075  48.9180 0008965  16.2163 343.9368 15.40531219136943
LEMUR-2-CAEL            
1 58903U 24022E   26198.53036876  .00009251  00000+0  21963-3 0  9999
2 58903  97.4057  49.8920 0006839   1.1188 359.0073 15.41903062137016
LEMUR-2-JOHNNYTRUONG    
1 59146U 24043BA  26198.90743782  .00027939  00000+0  31238-3 0  9993
2 59146  97.5403 352.5709 0003932  86.3859 273.7848 15.62709855132836
LEMUR-2-TOMATOKECHUP    
1 60471U 24149D   26198.78446355  .00005722  00000+0  16235-3 0  9991
2 60471  97.3792 280.9209 0003393 117.3320 242.8270 15.36614025106861
LEMUR-2-STELLA          
1 60533U 24149BT  26198.19094303  .00005866  00000+0  34171-3 0  9995
2 60533  97.6732 280.7889 0001224 121.9085 238.2264 15.12393884105030
LEMUR-2-MARHISYAM       
1 60536U 24149BW  26198.77832861  .00005523  00000+0  32728-3 0  9997
2 60536  97.6874 281.8587 0002282  64.9251 295.2216 15.11805944105105
LEMUR-2-AHMED-ASRAR     
1 60576U 24149DN  26198.78222546  .00006329  00000+0  35888-3 0  9990
2 60576  97.7001 284.0760 0001442 194.6012 165.5177 15.13339294105199
LEMUR-2-LLOYD           
1 60577U 24149DP  26198.79971431  .00004286  00000+0  26942-3 0  9997
2 60577  97.6737 279.9556 0004520  65.7509 294.4192 15.09775900105013
LEMUR-2-SQUIRRELCOMM    
1 60578U 24149DQ  26198.46042154  .00002465  00000+0  16679-3 0  9996
2 60578  97.6703 279.2816 0004033 316.9896  43.1016 15.07457788104964
LEMUR-2-SIERRINI        
1 60579U 24149DR  26198.47667112  .00005067  00000+0  30270-3 0  9999
2 60579  97.6836 281.2142 0006386  85.0986 275.0973 15.11538566105030
LEMUR-2-WILSON          
1 62694U 25009CP  26198.67783630  .00000845  00000+0  81929-4 0  9998
2 62694  97.7018 276.6080 0001817 310.1004  50.0058 14.95280611 81910
LEMUR-2-STAR-FOX        
1 62696U 25009CR  26198.19089499  .00003558  00000+0  26999-3 0  9998
2 62696  97.6903 279.5841 0001986  34.7534 325.3820 15.02855199 82065
LEMUR-2-ARIANNA         
1 62699U 25009CU  26198.18935917  .00003729  00000+0  28273-3 0  9992
2 62699  97.6845 279.3334 0002339  42.8979 317.2428 15.02857687 82062
LEMUR-2-ALISIA          
1 62706U 25009DB  26198.49411891  .00003823  00000+0  28718-3 0  9994
2 62706  97.6967 280.4652 0004590 122.6603 237.5065 15.03194149104710
